CCSDS_OMM_VERS = 2.0
CREATION_DATE  = 
ORIGINATOR     = 

OBJECT_NAME    = COSMOS 2151
OBJECT_ID      = 1991-042A
CENTER_NAME    = EARTH
REF_FRAME      = TEME
TIME_SYSTEM    = UTC
MEAN_ELEMENT_THEORY = SGP/SGP4

EPOCH          = 2025-12-02T03:32:32.972640
MEAN_MOTION    = 14.99623544
ECCENTRICITY   = .0013462
INCLINATION    = 82.4963
RA_OF_ASC_NODE = 177.7099
ARG_OF_PERICENTER = 34.5140
MEAN_ANOMALY   = 325.6955

EPHEMERIS_TYPE = 0
CLASSIFICATION_TYPE = U
NORAD_CAT_ID   = 21422
ELEMENT_SET_NO = 999
REV_AT_EPOCH   = 84857
BSTAR          = .14241E-3
MEAN_MOTION_DOT = .1783E-4
MEAN_MOTION_DDOT = 0

CCSDS_OMM_VERS = 2.0
CREATION_DATE  = 
ORIGINATOR     = 

OBJECT_NAME    = SL-14 R/B
OBJECT_ID      = 1991-042B
CENTER_NAME    = EARTH
REF_FRAME      = TEME
TIME_SYSTEM    = UTC
MEAN_ELEMENT_THEORY = SGP/SGP4

EPOCH          = 2025-12-02T01:04:20.091072
MEAN_MOTION    = 14.81722415
ECCENTRICITY   = .0016501
INCLINATION    = 82.4918
RA_OF_ASC_NODE = 311.7532
ARG_OF_PERICENTER = 196.9732
MEAN_ANOMALY   = 163.0932

EPHEMERIS_TYPE = 0
CLASSIFICATION_TYPE = U
NORAD_CAT_ID   = 21423
ELEMENT_SET_NO = 999
REV_AT_EPOCH   = 83861
BSTAR          = .68614E-4
MEAN_MOTION_DOT = .565E-5
MEAN_MOTION_DDOT = 0

CCSDS_OMM_VERS = 2.0
CREATION_DATE  = 
ORIGINATOR     = 

OBJECT_NAME    = ERS-1
OBJECT_ID      = 1991-050A
CENTER_NAME    = EARTH
REF_FRAME      = TEME
TIME_SYSTEM    = UTC
MEAN_ELEMENT_THEORY = SGP/SGP4

EPOCH          = 2025-12-02T00:45:26.906688
MEAN_MOTION    = 14.39351178
ECCENTRICITY   = .0032765
INCLINATION    = 98.7911
RA_OF_ASC_NODE = 346.8184
ARG_OF_PERICENTER = 130.8717
MEAN_ANOMALY   = 229.5318

EPHEMERIS_TYPE = 0
CLASSIFICATION_TYPE = U
NORAD_CAT_ID   = 21574
ELEMENT_SET_NO = 999
REV_AT_EPOCH   = 80168
BSTAR          = .14698E-3
MEAN_MOTION_DOT = .413E-5
MEAN_MOTION_DDOT = 0

CCSDS_OMM_VERS = 2.0
CREATION_DATE  = 
ORIGINATOR     = 

OBJECT_NAME    = ARIANE 40 R/B
OBJECT_ID      = 1991-050F
CENTER_NAME    = EARTH
REF_FRAME      = TEME
TIME_SYSTEM    = UTC
MEAN_ELEMENT_THEORY = SGP/SGP4

EPOCH          = 2025-12-02T04:13:23.409696
MEAN_MOTION    = 14.42798519
ECCENTRICITY   = .0003432
INCLINATION    = 98.2180
RA_OF_ASC_NODE = 26.9870
ARG_OF_PERICENTER = 29.8121
MEAN_ANOMALY   = 330.3264

EPHEMERIS_TYPE = 0
CLASSIFICATION_TYPE = U
NORAD_CAT_ID   = 21610
ELEMENT_SET_NO = 999
REV_AT_EPOCH   = 80493
BSTAR          = .14354E-3
MEAN_MOTION_DOT = .437E-5
MEAN_MOTION_DDOT = 0

CCSDS_OMM_VERS = 2.0
CREATION_DATE  = 
ORIGINATOR     = 

OBJECT_NAME    = INTERCOSMOS 25
OBJECT_ID      = 1991-086A
CENTER_NAME    = EARTH
REF_FRAME      = TEME
TIME_SYSTEM    = UTC
MEAN_ELEMENT_THEORY = SGP/SGP4

EPOCH          = 2025-12-02T03:36:12.197088
MEAN_MOTION    = 12.11666990
ECCENTRICITY   = .1487139
INCLINATION    = 82.6068
RA_OF_ASC_NODE = 8.9799
ARG_OF_PERICENTER = 327.2428
MEAN_ANOMALY   = 24.4331

EPHEMERIS_TYPE = 0
CLASSIFICATION_TYPE = U
NORAD_CAT_ID   = 21819
ELEMENT_SET_NO = 999
REV_AT_EPOCH   = 48487
BSTAR          = .5505E-3
MEAN_MOTION_DOT = .2778E-4
MEAN_MOTION_DDOT = 0

CCSDS_OMM_VERS = 2.0
CREATION_DATE  = 
ORIGINATOR     = 

OBJECT_NAME    = SL-8 R/B
OBJECT_ID      = 1992-008B
CENTER_NAME    = EARTH
REF_FRAME      = TEME
TIME_SYSTEM    = UTC
MEAN_ELEMENT_THEORY = SGP/SGP4

EPOCH          = 2025-12-02T03:16:30.962208
MEAN_MOTION    = 13.75955478
ECCENTRICITY   = .0035736
INCLINATION    = 82.9263
RA_OF_ASC_NODE = 340.3342
ARG_OF_PERICENTER = 48.7968
MEAN_ANOMALY   = 18.2549

EPHEMERIS_TYPE = 0
CLASSIFICATION_TYPE = U
NORAD_CAT_ID   = 21876
ELEMENT_SET_NO = 999
REV_AT_EPOCH   = 69600
BSTAR          = .16273E-3
MEAN_MOTION_DOT = .174E-5
MEAN_MOTION_DDOT = 0

CCSDS_OMM_VERS = 2.0
CREATION_DATE  = 
ORIGINATOR     = 

OBJECT_NAME    = SL-8 R/B
OBJECT_ID      = 1992-020B
CENTER_NAME    = EARTH
REF_FRAME      = TEME
TIME_SYSTEM    = UTC
MEAN_ELEMENT_THEORY = SGP/SGP4

EPOCH          = 2025-12-02T04:00:23.003424
MEAN_MOTION    = 13.75524636
ECCENTRICITY   = .0028235
INCLINATION    = 82.9314
RA_OF_ASC_NODE = 226.1678
ARG_OF_PERICENTER = 208.0658
MEAN_ANOMALY   = 306.0713

EPHEMERIS_TYPE = 0
CLASSIFICATION_TYPE = U
NORAD_CAT_ID   = 21938
ELEMENT_SET_NO = 999
REV_AT_EPOCH   = 68772
BSTAR          = .61702E-4
MEAN_MOTION_DOT = .75E-6
MEAN_MOTION_DDOT = 0

CCSDS_OMM_VERS = 2.0
CREATION_DATE  = 
ORIGINATOR     = 

OBJECT_NAME    = USA 81
OBJECT_ID      = 1992-023A
CENTER_NAME    = EARTH
REF_FRAME      = TEME
TIME_SYSTEM    = UTC
MEAN_ELEMENT_THEORY = SGP/SGP4

EPOCH          = 2025-12-02T01:35:05.404992
MEAN_MOTION    = 14.32320651
ECCENTRICITY   = .0001892
INCLINATION    = 85.0089
RA_OF_ASC_NODE = 187.7316
ARG_OF_PERICENTER = 63.0775
MEAN_ANOMALY   = 297.0611

EPHEMERIS_TYPE = 0
CLASSIFICATION_TYPE = U
NORAD_CAT_ID   = 21949
ELEMENT_SET_NO = 999
REV_AT_EPOCH   = 8081
BSTAR          = .76228E-4
MEAN_MOTION_DOT = .226E-5
MEAN_MOTION_DDOT = 0

CCSDS_OMM_VERS = 2.0
CREATION_DATE  = 
ORIGINATOR     = 

OBJECT_NAME    = COSMOS 2219
OBJECT_ID      = 1992-076A
CENTER_NAME    = EARTH
REF_FRAME      = TEME
TIME_SYSTEM    = UTC
MEAN_ELEMENT_THEORY = SGP/SGP4

EPOCH          = 2025-12-02T02:43:44.937120
MEAN_MOTION    = 14.14064225
ECCENTRICITY   = .0018824
INCLINATION    = 71.0594
RA_OF_ASC_NODE = 222.0447
ARG_OF_PERICENTER = 341.5214
MEAN_ANOMALY   = 18.5222

EPHEMERIS_TYPE = 0
CLASSIFICATION_TYPE = U
NORAD_CAT_ID   = 22219
ELEMENT_SET_NO = 999
REV_AT_EPOCH   = 70458
BSTAR          = -.10502E-3
MEAN_MOTION_DOT = -.247E-5
MEAN_MOTION_DDOT = 0

CCSDS_OMM_VERS = 2.0
CREATION_DATE  = 
ORIGINATOR     = 

OBJECT_NAME    = SL-16 R/B
OBJECT_ID      = 1992-076B
CENTER_NAME    = EARTH
REF_FRAME      = TEME
TIME_SYSTEM    = UTC
MEAN_ELEMENT_THEORY = SGP/SGP4

EPOCH          = 2025-12-02T04:44:19.692096
MEAN_MOTION    = 14.16840884
ECCENTRICITY   = .0015071
INCLINATION    = 71.0016
RA_OF_ASC_NODE = 33.7391
ARG_OF_PERICENTER = 248.1028
MEAN_ANOMALY   = 171.8131

EPHEMERIS_TYPE = 0
CLASSIFICATION_TYPE = U
NORAD_CAT_ID   = 22220
ELEMENT_SET_NO = 999
REV_AT_EPOCH   = 70802
BSTAR          = .71978E-4
MEAN_MOTION_DOT = .96E-6
MEAN_MOTION_DDOT = 0

CCSDS_OMM_VERS = 2.0
CREATION_DATE  = 
ORIGINATOR     = 

OBJECT_NAME    = COSMOS 2221
OBJECT_ID      = 1992-080A
CENTER_NAME    = EARTH
REF_FRAME      = TEME
TIME_SYSTEM    = UTC
MEAN_ELEMENT_THEORY = SGP/SGP4

EPOCH          = 2025-12-02T04:20:33.177120
MEAN_MOTION    = 14.95695699
ECCENTRICITY   = .0015304
INCLINATION    = 82.5052
RA_OF_ASC_NODE = 12.4318
ARG_OF_PERICENTER = 154.7600
MEAN_ANOMALY   = 205.4373

EPHEMERIS_TYPE = 0
CLASSIFICATION_TYPE = U
NORAD_CAT_ID   = 22236
ELEMENT_SET_NO = 999
REV_AT_EPOCH   = 76621
BSTAR          = .22893E-3
MEAN_MOTION_DOT = .2578E-4
MEAN_MOTION_DDOT = 0

CCSDS_OMM_VERS = 2.0
CREATION_DATE  = 
ORIGINATOR     = 

OBJECT_NAME    = SL-16 R/B
OBJECT_ID      = 1992-093B
CENTER_NAME    = EARTH
REF_FRAME      = TEME
TIME_SYSTEM    = UTC
MEAN_ELEMENT_THEORY = SGP/SGP4

EPOCH          = 2025-12-02T01:44:44.570976
MEAN_MOTION    = 14.15425699
ECCENTRICITY   = .0001939
INCLINATION    = 71.0202
RA_OF_ASC_NODE = 209.1873
ARG_OF_PERICENTER = 104.4605
MEAN_ANOMALY   = 255.6734

EPHEMERIS_TYPE = 0
CLASSIFICATION_TYPE = U
NORAD_CAT_ID   = 22285
ELEMENT_SET_NO = 999
REV_AT_EPOCH   = 69934
BSTAR          = -.63035E-4
MEAN_MOTION_DOT = -.171E-5
MEAN_MOTION_DDOT = 0

