COSMOS 2151             
1 21422U 91042A   25336.14760385  .00001783  00000+0  14241-3 0  9993
2 21422  82.4963 177.7099 0013462  34.5140 325.6955 14.99623544848572
SL-14 R/B               
1 21423U 91042B   25336.04467698  .00000565  00000+0  68614-4 0  9995
2 21423  82.4918 311.7532 0016501 196.9732 163.0932 14.81722415838613
ERS-1                   
1 21574U 91050A   25336.03156142  .00000413  00000+0  14698-3 0  9993
2 21574  98.7911 346.8184 0032765 130.8717 229.5318 14.39351178801685
ARIANE 40 R/B           
1 21610U 91050F   25336.17596539  .00000437  00000+0  14354-3 0  9992
2 21610  98.2180  26.9870 0003432  29.8121 330.3264 14.42798519804932
INTERCOSMOS 25          
1 21819U 91086A   25336.15014117  .00002778  00000+0  55050-3 0  9995
2 21819  82.6068   8.9799 1487139 327.2428  24.4331 12.11666990484875
SL-8 R/B                
1 21876U 92008B   25336.13646947  .00000174  00000+0  16273-3 0  9995
2 21876  82.9263 340.3342 0035736  48.7968  18.2549 13.75955478696005
SL-8 R/B                
1 21938U 92020B   25336.16693291  .00000075  00000+0  61702-4 0  9993
2 21938  82.9314 226.1678 0028235 208.0658 306.0713 13.75524636687725
USA 81                  
1 21949U 92023A   25336.06603478  .00000226  00000+0  76228-4 0  9992
2 21949  85.0089 187.7316 0001892  63.0775 297.0611 14.32320651 80818
COSMOS 2219             
1 22219U 92076A   25336.11371455 -.00000247  00000+0 -10502-3 0  9991
2 22219  71.0594 222.0447 0018824 341.5214  18.5222 14.14064225704581
SL-16 R/B               
1 22220U 92076B   25336.19745014  .00000096  00000+0  71978-4 0  9992
2 22220  71.0016  33.7391 0015071 248.1028 171.8131 14.16840884708023
COSMOS 2221             
1 22236U 92080A   25336.18093955  .00002578  00000+0  22893-3 0  9991
2 22236  82.5052  12.4318 0015304 154.7600 205.4373 14.95695699766213
SL-16 R/B               
1 22285U 92093B   25336.07273809 -.00000171  00000+0 -63035-4 0  9998
2 22285  71.0202 209.1873 0001939 104.4605 255.6734 14.15425699699344
